{
  "satellites": [
    {
      "id": "CALSPHERE 1",
      "name": "CALSPHERE 1",
      "tle1": "1 00900U 64063C   25346.92439983  .00000964  00000+0  97530-3 0  9990",
      "tle2": "2 00900  90.2212  67.4627 0027561 135.6124 263.8169 13.76368616 45801"
    }
  ]
}